ORBCOMM FM20            
1 25416U 98046D   25036.58356731  .00002108  00000+0  75600-3 0  9990
2 25416  44.9937  84.3071 0002594 275.1705  84.8846 14.36715147385335
ORBCOMM FM16            
1 25417U 98046E   25036.79736515  .00003195  00000+0  10879-2 0  9999
2 25417  44.9936  76.5076 0005172 325.1375  34.9134 14.38214266385555
ORBCOMM FM15            
1 25418U 98046F   25036.81161684  .00002727  00000+0  94159-3 0  9996
2 25418  44.9967  81.2048 0004657 323.4743  36.5787 14.37889471385501
ORBCOMM FM14            
1 25419U 98046G   25036.58265775  .00002827  00000+0  96826-3 0  9991
2 25419  44.9955  80.8835 0004151 308.6027  51.4449 14.38197296385269
ORBCOMM FM13            
1 25420U 98046H   25036.58819470  .00002586  00000+0  90942-3 0  9995
2 25420  44.9970  87.6170 0006004 313.0709  46.9636 14.37101396385432
ORBCOMM FM21            
1 25475U 98053A   25036.63704974  .00002468  00000+0  87478-3 0  9990
2 25475  45.0067 172.2623 0002132 234.5846 125.4803 14.36856341378653
ORBCOMM FM22            
1 25476U 98053B   25036.62429740  .00003143  00000+0  10816-2 0  9997
2 25476  45.0061 168.1690 0003877 253.9850 106.0571 14.37734172378333
ORBCOMM FM23            
1 25477U 98053C   25036.79130256  .00002932  00000+0  10275-2 0  9991
2 25477  45.0068 173.8162 0002990 246.6210 113.4324 14.36981337378808
