<?xml version="1.0" encoding="UTF-8"?>
<ndm xmlns:xsi="http://www.w3.org/2001/XMLSchema-instance" xsi:noNamespaceSchemaLocation="https://sanaregistry.org/r/ndmxml_unqualified/ndmxml-2.0.0-master-2.0.xsd">
<omm id="CCSDS_OMM_VERS" version="2.0">
<header><CREATION_DATE/><ORIGINATOR/></header><body><segment><metadata><OBJECT_NAME>ORBCOMM FM20</OBJECT_NAME><OBJECT_ID>1998-046D</OBJECT_ID><CENTER_NAME>EARTH</CENTER_NAME><REF_FRAME>TEME</REF_FRAME><TIME_SYSTEM>UTC</TIME_SYSTEM><MEAN_ELEMENT_THEORY>SGP4</MEAN_ELEMENT_THEORY></metadata><data><meanElements><EPOCH>2025-02-05T14:00:20.215584</EPOCH><MEAN_MOTION>14.36715147</MEAN_MOTION><ECCENTRICITY>.0002594</ECCENTRICITY><INCLINATION>44.9937</INCLINATION><RA_OF_ASC_NODE>84.3071</RA_OF_ASC_NODE><ARG_OF_PERICENTER>275.1705</ARG_OF_PERICENTER><MEAN_ANOMALY>84.8846</MEAN_ANOMALY></meanElements><tleParameters><EPHEMERIS_TYPE>0</EPHEMERIS_TYPE><CLASSIFICATION_TYPE>U</CLASSIFICATION_TYPE><NORAD_CAT_ID>25416</NORAD_CAT_ID><ELEMENT_SET_NO>999</ELEMENT_SET_NO><REV_AT_EPOCH>38533</REV_AT_EPOCH><BSTAR>.756E-3</BSTAR><MEAN_MOTION_DOT>.2108E-4</MEAN_MOTION_DOT><MEAN_MOTION_DDOT>0</MEAN_MOTION_DDOT></tleParameters></data></segment></body></omm>
<omm id="CCSDS_OMM_VERS" version="2.0">
<header><CREATION_DATE/><ORIGINATOR/></header><body><segment><metadata><OBJECT_NAME>ORBCOMM FM16</OBJECT_NAME><OBJECT_ID>1998-046E</OBJECT_ID><CENTER_NAME>EARTH</CENTER_NAME><REF_FRAME>TEME</REF_FRAME><TIME_SYSTEM>UTC</TIME_SYSTEM><MEAN_ELEMENT_THEORY>SGP4</MEAN_ELEMENT_THEORY></metadata><data><meanElements><EPOCH>2025-02-05T19:08:12.348960</EPOCH><MEAN_MOTION>14.38214266</MEAN_MOTION><ECCENTRICITY>.0005172</ECCENTRICITY><INCLINATION>44.9936</INCLINATION><RA_OF_ASC_NODE>76.5076</RA_OF_ASC_NODE><ARG_OF_PERICENTER>325.1375</ARG_OF_PERICENTER><MEAN_ANOMALY>34.9134</MEAN_ANOMALY></meanElements><tleParameters><EPHEMERIS_TYPE>0</EPHEMERIS_TYPE><CLASSIFICATION_TYPE>U</CLASSIFICATION_TYPE><NORAD_CAT_ID>25417</NORAD_CAT_ID><ELEMENT_SET_NO>999</ELEMENT_SET_NO><REV_AT_EPOCH>38555</REV_AT_EPOCH><BSTAR>.10879E-2</BSTAR><MEAN_MOTION_DOT>.3195E-4</MEAN_MOTION_DOT><MEAN_MOTION_DDOT>0</MEAN_MOTION_DDOT></tleParameters></data></segment></body></omm>
<omm id="CCSDS_OMM_VERS" version="2.0">
<header><CREATION_DATE/><ORIGINATOR/></header><body><segment><metadata><OBJECT_NAME>ORBCOMM FM15</OBJECT_NAME><OBJECT_ID>1998-046F</OBJECT_ID><CENTER_NAME>EARTH</CENTER_NAME><REF_FRAME>TEME</REF_FRAME><TIME_SYSTEM>UTC</TIME_SYSTEM><MEAN_ELEMENT_THEORY>SGP4</MEAN_ELEMENT_THEORY></metadata><data><meanElements><EPOCH>2025-02-05T19:28:43.694976</EPOCH><MEAN_MOTION>14.37889471</MEAN_MOTION><ECCENTRICITY>.0004657</ECCENTRICITY><INCLINATION>44.9967</INCLINATION><RA_OF_ASC_NODE>81.2048</RA_OF_ASC_NODE><ARG_OF_PERICENTER>323.4743</ARG_OF_PERICENTER><MEAN_ANOMALY>36.5787</MEAN_ANOMALY></meanElements><tleParameters><EPHEMERIS_TYPE>0</EPHEMERIS_TYPE><CLASSIFICATION_TYPE>U</CLASSIFICATION_TYPE><NORAD_CAT_ID>25418</NORAD_CAT_ID><ELEMENT_SET_NO>999</ELEMENT_SET_NO><REV_AT_EPOCH>38550</REV_AT_EPOCH><BSTAR>.94159E-3</BSTAR><MEAN_MOTION_DOT>.2727E-4</MEAN_MOTION_DOT><MEAN_MOTION_DDOT>0</MEAN_MOTION_DDOT></tleParameters></data></segment></body></omm>
<omm id="CCSDS_OMM_VERS" version="2.0">
<header><CREATION_DATE/><ORIGINATOR/></header><body><segment><metadata><OBJECT_NAME>ORBCOMM FM14</OBJECT_NAME><OBJECT_ID>1998-046G</OBJECT_ID><CENTER_NAME>EARTH</CENTER_NAME><REF_FRAME>TEME</REF_FRAME><TIME_SYSTEM>UTC</TIME_SYSTEM><MEAN_ELEMENT_THEORY>SGP4</MEAN_ELEMENT_THEORY></metadata><data><meanElements><EPOCH>2025-02-05T13:59:01.629600</EPOCH><MEAN_MOTION>14.38197296</MEAN_MOTION><ECCENTRICITY>.0004151</ECCENTRICITY><INCLINATION>44.9955</INCLINATION><RA_OF_ASC_NODE>80.8835</RA_OF_ASC_NODE><ARG_OF_PERICENTER>308.6027</ARG_OF_PERICENTER><MEAN_ANOMALY>51.4449</MEAN_ANOMALY></meanElements><tleParameters><EPHEMERIS_TYPE>0</EPHEMERIS_TYPE><CLASSIFICATION_TYPE>U</CLASSIFICATION_TYPE><NORAD_CAT_ID>25419</NORAD_CAT_ID><ELEMENT_SET_NO>999</ELEMENT_SET_NO><REV_AT_EPOCH>38526</REV_AT_EPOCH><BSTAR>.96826E-3</BSTAR><MEAN_MOTION_DOT>.2827E-4</MEAN_MOTION_DOT><MEAN_MOTION_DDOT>0</MEAN_MOTION_DDOT></tleParameters></data></segment></body></omm>
<omm id="CCSDS_OMM_VERS" version="2.0">
<header><CREATION_DATE/><ORIGINATOR/></header><body><segment><metadata><OBJECT_NAME>ORBCOMM FM13</OBJECT_NAME><OBJECT_ID>1998-046H</OBJECT_ID><CENTER_NAME>EARTH</CENTER_NAME><REF_FRAME>TEME</REF_FRAME><TIME_SYSTEM>UTC</TIME_SYSTEM><MEAN_ELEMENT_THEORY>SGP4</MEAN_ELEMENT_THEORY></metadata><data><meanElements><EPOCH>2025-02-05T14:07:00.022080</EPOCH><MEAN_MOTION>14.37101396</MEAN_MOTION><ECCENTRICITY>.0006004</ECCENTRICITY><INCLINATION>44.9970</INCLINATION><RA_OF_ASC_NODE>87.6170</RA_OF_ASC_NODE><ARG_OF_PERICENTER>313.0709</ARG_OF_PERICENTER><MEAN_ANOMALY>46.9636</MEAN_ANOMALY></meanElements><tleParameters><EPHEMERIS_TYPE>0</EPHEMERIS_TYPE><CLASSIFICATION_TYPE>U</CLASSIFICATION_TYPE><NORAD_CAT_ID>25420</NORAD_CAT_ID><ELEMENT_SET_NO>999</ELEMENT_SET_NO><REV_AT_EPOCH>38543</REV_AT_EPOCH><BSTAR>.90942E-3</BSTAR><MEAN_MOTION_DOT>.2586E-4</MEAN_MOTION_DOT><MEAN_MOTION_DDOT>0</MEAN_MOTION_DDOT></tleParameters></data></segment></body></omm>
<omm id="CCSDS_OMM_VERS" version="2.0">
<header><CREATION_DATE/><ORIGINATOR/></header><body><segment><metadata><OBJECT_NAME>ORBCOMM FM21</OBJECT_NAME><OBJECT_ID>1998-053A</OBJECT_ID><CENTER_NAME>EARTH</CENTER_NAME><REF_FRAME>TEME</REF_FRAME><TIME_SYSTEM>UTC</TIME_SYSTEM><MEAN_ELEMENT_THEORY>SGP4</MEAN_ELEMENT_THEORY></metadata><data><meanElements><EPOCH>2025-02-05T15:17:21.097536</EPOCH><MEAN_MOTION>14.36856341</MEAN_MOTION><ECCENTRICITY>.0002132</ECCENTRICITY><INCLINATION>45.0067</INCLINATION><RA_OF_ASC_NODE>172.2623</RA_OF_ASC_NODE><ARG_OF_PERICENTER>234.5846</ARG_OF_PERICENTER><MEAN_ANOMALY>125.4803</MEAN_ANOMALY></meanElements><tleParameters><EPHEMERIS_TYPE>0</EPHEMERIS_TYPE><CLASSIFICATION_TYPE>U</CLASSIFICATION_TYPE><NORAD_CAT_ID>25475</NORAD_CAT_ID><ELEMENT_SET_NO>999</ELEMENT_SET_NO><REV_AT_EPOCH>37865</REV_AT_EPOCH><BSTAR>.87478E-3</BSTAR><MEAN_MOTION_DOT>.2468E-4</MEAN_MOTION_DOT><MEAN_MOTION_DDOT>0</MEAN_MOTION_DDOT></tleParameters></data></segment></body></omm>
<omm id="CCSDS_OMM_VERS" version="2.0">
<header><CREATION_DATE/><ORIGINATOR/></header><body><segment><metadata><OBJECT_NAME>ORBCOMM FM22</OBJECT_NAME><OBJECT_ID>1998-053B</OBJECT_ID><CENTER_NAME>EARTH</CENTER_NAME><REF_FRAME>TEME</REF_FRAME><TIME_SYSTEM>UTC</TIME_SYSTEM><MEAN_ELEMENT_THEORY>SGP4</MEAN_ELEMENT_THEORY></metadata><data><meanElements><EPOCH>2025-02-05T14:58:59.295360</EPOCH><MEAN_MOTION>14.37734172</MEAN_MOTION><ECCENTRICITY>.0003877</ECCENTRICITY><INCLINATION>45.0061</INCLINATION><RA_OF_ASC_NODE>168.1690</RA_OF_ASC_NODE><ARG_OF_PERICENTER>253.9850</ARG_OF_PERICENTER><MEAN_ANOMALY>106.0571</MEAN_ANOMALY></meanElements><tleParameters><EPHEMERIS_TYPE>0</EPHEMERIS_TYPE><CLASSIFICATION_TYPE>U</CLASSIFICATION_TYPE><NORAD_CAT_ID>25476</NORAD_CAT_ID><ELEMENT_SET_NO>999</ELEMENT_SET_NO><REV_AT_EPOCH>37833</REV_AT_EPOCH><BSTAR>.10816E-2</BSTAR><MEAN_MOTION_DOT>.3143E-4</MEAN_MOTION_DOT><MEAN_MOTION_DDOT>0</MEAN_MOTION_DDOT></tleParameters></data></segment></body></omm>
<omm id="CCSDS_OMM_VERS" version="2.0">
<header><CREATION_DATE/><ORIGINATOR/></header><body><segment><metadata><OBJECT_NAME>ORBCOMM FM23</OBJECT_NAME><OBJECT_ID>1998-053C</OBJECT_ID><CENTER_NAME>EARTH</CENTER_NAME><REF_FRAME>TEME</REF_FRAME><TIME_SYSTEM>UTC</TIME_SYSTEM><MEAN_ELEMENT_THEORY>SGP4</MEAN_ELEMENT_THEORY></metadata><data><meanElements><EPOCH>2025-02-05T18:59:28.541184</EPOCH><MEAN_MOTION>14.36981337</MEAN_MOTION><ECCENTRICITY>.000299</ECCENTRICITY><INCLINATION>45.0068</INCLINATION><RA_OF_ASC_NODE>173.8162</RA_OF_ASC_NODE><ARG_OF_PERICENTER>246.6210</ARG_OF_PERICENTER><MEAN_ANOMALY>113.4324</MEAN_ANOMALY></meanElements><tleParameters><EPHEMERIS_TYPE>0</EPHEMERIS_TYPE><CLASSIFICATION_TYPE>U</CLASSIFICATION_TYPE><NORAD_CAT_ID>25477</NORAD_CAT_ID><ELEMENT_SET_NO>999</ELEMENT_SET_NO><REV_AT_EPOCH>37880</REV_AT_EPOCH><BSTAR>.10275E-2</BSTAR><MEAN_MOTION_DOT>.2932E-4</MEAN_MOTION_DOT><MEAN_MOTION_DDOT>0</MEAN_MOTION_DDOT></tleParameters></data></segment></body></omm>

</ndm>
